{"type": "FeatureCollection", "features": [ {"type": "Feature", "properties": {"norad_id": 29843, "name": "FENGYUN 1C DEB", "group": "fengyun-1c-debris", "lat": -8.030567060251974, "lon": -158.2953591830077, "alt_km": 831.7502591337661, "timestamp": "2025-12-27T12:55:14.777036+00:00", "meta": {"OBJECT_NAME": "FENGYUN 1C DEB", "OBJECT_ID": "1999-025EM", "EPOCH": "2025-12-27T07:04:15.637152", "MEAN_MOTION": 14.28583478, "ECCENTRICITY": 0.01915969, "INCLINATION": 99.0367, "RA_OF_ASC_NODE": 200.1656, "ARG_OF_PERICENTER": 248.4311, "MEAN_ANOMALY": 288.5941, "EPHEMERIS_TYPE": 0, "CLASSIFICATION_TYPE": "U", "NORAD_CAT_ID": 29843, "ELEMENT_SET_NO": 999, "REV_AT_EPOCH": 98489, "BSTAR": 0.00029580871, "MEAN_MOTION_DOT": 8.5e-06, "MEAN_MOTION_DDOT": 0}, "tle": {"line1": "1 29843U 99025EM  25361.29462543  .00000850  00000+0  29581-3 0  9993", "line2": "2 29843  99.0367 200.1656 0191596 248.4311 288.5941 14.28583478984891"}}, "geometry": {"type": "Point", "coordinates": [-158.2953591830077, -8.030567060251974]}}, {"type": "Feature", "properties": {"norad_id": 29844, "name": "FENGYUN 1C DEB", "group": "fengyun-1c-debris", "lat": -36.39592902605322, "lon": 76.66814722192306, "alt_km": 795.3360476257003, "timestamp": "2025-12-27T12:55:14.777045+00:00", "meta": {"OBJECT_NAME": "FENGYUN 1C DEB", "OBJECT_ID": "1999-025EN", "EPOCH": "2025-12-27T06:53:49.664832", "MEAN_MOTION": 14.32019132, "ECCENTRICITY": 0.01687158, "INCLINATION": 98.9369, "RA_OF_ASC_NODE": 263.0707, "ARG_OF_PERICENTER": 124.6565, "MEAN_ANOMALY": 237.0652, "EPHEMERIS_TYPE": 0, "CLASSIFICATION_TYPE": "U", "NORAD_CAT_ID": 29844, "ELEMENT_SET_NO": 999, "REV_AT_EPOCH": 98549, "BSTAR": 0.00044392176, "MEAN_MOTION_DOT": 1.345e-05, "MEAN_MOTION_DDOT": 0}, "tle": {"line1": "1 29844U 99025EN  25361.28738038  .00001345  00000+0  44392-3 0  9995", "line2": "2 29844  98.9369 263.0707 0168715 124.6565 237.0652 14.32019132985491"}}, "geometry": {"type": "Point", "coordinates": [76.66814722192306, -36.39592902605322]}}, {"type": "Feature", "properties": {"norad_id": 29845, "name": "FENGYUN 1C DEB", "group": "fengyun-1c-debris", "lat": 5.715967857960857, "lon": -177.65128331256676, "alt_km": 801.0152399242443, "timestamp": "2025-12-27T12:55:14.777056+00:00", "meta": {"OBJECT_NAME": "FENGYUN 1C DEB", "OBJECT_ID": "1999-025EP", "EPOCH": "2025-12-26T22:54:56.530080", "MEAN_MOTION": 14.26520758, "ECCENTRICITY": 0.0078169, "INCLINATION": 98.5222, "RA_OF_ASC_NODE": 0.9207, "ARG_OF_PERICENTER": 89.9793, "MEAN_ANOMALY": 328.1598, "EPHEMERIS_TYPE": 0, "CLASSIFICATION_TYPE": "U", "NORAD_CAT_ID": 29845, "ELEMENT_SET_NO": 999, "REV_AT_EPOCH": 98312, "BSTAR": 0.00058758, "MEAN_MOTION_DOT": 1.421e-05, "MEAN_MOTION_DDOT": 0}, "tle": {"line1": "1 29845U 99025EP  25360.95482095  .00001421  00000+0  58758-3 0  9994", "line2": "2 29845  98.5222   0.9207 0078169  89.9793 328.1598 14.26520758983121"}}, "geometry": {"type": "Point", "coordinates": [-177.65128331256676, 5.715967857960857]}}, {"type": "Feature", "properties": {"norad_id": 29846, "name": "FENGYUN 1C DEB", "group": "fengyun-1c-debris", "lat": 10.796639322739747, "lon": -135.32448400811154, "alt_km": 831.6048825942971, "timestamp": "2025-12-27T12:55:14.777066+00:00", "meta": {"OBJECT_NAME": "FENGYUN 1C DEB", "OBJECT_ID": "1999-025EQ", "EPOCH": "2025-12-27T02:12:59.804640", "MEAN_MOTION": 14.19101508, "ECCENTRICITY": 0.00837906, "INCLINATION": 98.6533, "RA_OF_ASC_NODE": 42.5759, "ARG_OF_PERICENTER": 262.4421, "MEAN_ANOMALY": 150.2233, "EPHEMERIS_TYPE": 0, "CLASSIFICATION_TYPE": "U", "NORAD_CAT_ID": 29846, "ELEMENT_SET_NO": 999, "REV_AT_EPOCH": 98063, "BSTAR": 0.00016484488, "MEAN_MOTION_DOT": 3.13e-06, "MEAN_MOTION_DDOT": 0}, "tle": {"line1": "1 29846U 99025EQ  25361.09235885  .00000313  00000+0  16484-3 0  9993", "line2": "2 29846  98.6533  42.5759 0083790 262.4421 150.2233 14.19101508980637"}}, "geometry": {"type": "Point", "coordinates": [-135.32448400811154, 10.796639322739747]}}, {"type": "Feature", "properties": {"norad_id": 29847, "name": "FENGYUN 1C DEB", "group": "fengyun-1c-debris", "lat": -77.29800037261636, "lon": 41.19255897278719, "alt_km": 878.1473596729593, "timestamp": "2025-12-27T12:55:14.777076+00:00", "meta": {"OBJECT_NAME": "FENGYUN 1C DEB", "OBJECT_ID": "1999-025ER", "EPOCH": "2025-12-26T22:10:35.887008", "MEAN_MOTION": 14.03014947, "ECCENTRICITY": 0.0084696, "INCLINATION": 98.9041, "RA_OF_ASC_NODE": 356.5231, "ARG_OF_PERICENTER": 359.5437, "MEAN_ANOMALY": 59.2909, "EPHEMERIS_TYPE": 0, "CLASSIFICATION_TYPE": "U", "NORAD_CAT_ID": 29847, "ELEMENT_SET_NO": 999, "REV_AT_EPOCH": 96934, "BSTAR": 0.00035082, "MEAN_MOTION_DOT": 5.19e-06, "MEAN_MOTION_DDOT": 0}, "tle": {"line1": "1 29847U 99025ER  25360.92402647  .00000519  00000+0  35082-3 0  9990", "line2": "2 29847  98.9041 356.5231 0084696 359.5437  59.2909 14.03014947969345"}}, "geometry": {"type": "Point", "coordinates": [41.19255897278719, -77.29800037261636]}}, {"type": "Feature", "properties": {"norad_id": 29848, "name": "FENGYUN 1C DEB", "group": "fengyun-1c-debris", "lat": -57.26914836779711, "lon": -119.79986672570374, "alt_km": 775.8138251035098, "timestamp": "2025-12-27T12:55:14.777086+00:00", "meta": {"OBJECT_NAME": "FENGYUN 1C DEB", "OBJECT_ID": "1999-025ES", "EPOCH": "2025-12-27T05:20:01.744224", "MEAN_MOTION": 14.20649636, "ECCENTRICITY": 0.01162455, "INCLINATION": 98.248, "RA_OF_ASC_NODE": 226.8627, "ARG_OF_PERICENTER": 252.7919, "MEAN_ANOMALY": 232.2094, "EPHEMERIS_TYPE": 0, "CLASSIFICATION_TYPE": "U", "NORAD_CAT_ID": 29848, "ELEMENT_SET_NO": 999, "REV_AT_EPOCH": 97323, "BSTAR": 0.0013858553, "MEAN_MOTION_DOT": 3.155e-05, "MEAN_MOTION_DDOT": 0}, "tle": {"line1": "1 29848U 99025ES  25361.22224241  .00003155  00000+0  13859-2 0  9993", "line2": "2 29848  98.2480 226.8627 0116245 252.7919 232.2094 14.20649636973238"}}, "geometry": {"type": "Point", "coordinates": [-119.79986672570374, -57.26914836779711]}}, {"type": "Feature", "properties": {"norad_id": 29849, "name": "FENGYUN 1C DEB", "group": "fengyun-1c-debris", "lat": 32.8890767728003, "lon": 79.92274622350324, "alt_km": 824.7020159141384, "timestamp": "2025-12-27T12:55:14.777096+00:00", "meta": {"OBJECT_NAME": "FENGYUN 1C DEB", "OBJECT_ID": "1999-025ET", "EPOCH": "2025-12-27T04:31:41.013696", "MEAN_MOTION": 14.04934593, "ECCENTRICITY": 0.00798135, "INCLINATION": 99.0103, "RA_OF_ASC_NODE": 85.4647, "ARG_OF_PERICENTER": 3.842, "MEAN_ANOMALY": 61.4327, "EPHEMERIS_TYPE": 0, "CLASSIFICATION_TYPE": "U", "NORAD_CAT_ID": 29849, "ELEMENT_SET_NO": 999, "REV_AT_EPOCH": 96573, "BSTAR": 0.0011327907, "MEAN_MOTION_DOT": 1.83e-05, "MEAN_MOTION_DDOT": 0}, "tle": {"line1": "1 29849U 99025ET  25361.18866914  .00001830  00000+0  11328-2 0  9995", "line2": "2 29849  99.0103  85.4647 0079813   3.8420  61.4327 14.04934593965730"}}, "geometry": {"type": "Point", "coordinates": [79.92274622350324, 32.8890767728003]}}, {"type": "Feature", "properties": {"norad_id": 29850, "name": "FENGYUN 1C DEB", "group": "fengyun-1c-debris", "lat": 63.01733618357406, "lon": -89.76302458774668, "alt_km": 961.9258306996153, "timestamp": "2025-12-27T12:55:14.777107+00:00", "meta": {"OBJECT_NAME": "FENGYUN 1C DEB", "OBJECT_ID": "1999-025EU", "EPOCH": "2025-12-27T08:03:30.862368", "MEAN_MOTION": 13.99909511, "ECCENTRICITY": 0.01018865, "INCLINATION": 98.1257, "RA_OF_ASC_NODE": 286.3532, "ARG_OF_PERICENTER": 248.0938, "MEAN_ANOMALY": 235.646, "EPHEMERIS_TYPE": 0, "CLASSIFICATION_TYPE": "U", "NORAD_CAT_ID": 29850, "ELEMENT_SET_NO": 999, "REV_AT_EPOCH": 96224, "BSTAR": 0.0011338777, "MEAN_MOTION_DOT": 1.704e-05, "MEAN_MOTION_DDOT": 0}, "tle": {"line1": "1 29850U 99025EU  25361.33577387  .00001704  00000+0  11339-2 0  9999", "line2": "2 29850  98.1257 286.3532 0101886 248.0938 235.6460 13.99909511962241"}}, "geometry": {"type": "Point", "coordinates": [-89.76302458774668, 63.01733618357406]}}, {"type": "Feature", "properties": {"norad_id": 29851, "name": "FENGYUN 1C DEB", "group": "fengyun-1c-debris", "lat": -47.26887968423745, "lon": -147.7947321368506, "alt_km": 876.7574394103567, "timestamp": "2025-12-27T12:55:14.777117+00:00", "meta": {"OBJECT_NAME": "FENGYUN 1C DEB", "OBJECT_ID": "1999-025EV", "EPOCH": "2025-12-27T01:44:07.465632", "MEAN_MOTION": 13.8361158, "ECCENTRICITY": 0.01425661, "INCLINATION": 99.5825, "RA_OF_ASC_NODE": 42.2672, "ARG_OF_PERICENTER": 189.6451, "MEAN_ANOMALY": 237.1924, "EPHEMERIS_TYPE": 0, "CLASSIFICATION_TYPE": "U", "NORAD_CAT_ID": 29851, "ELEMENT_SET_NO": 999, "REV_AT_EPOCH": 95565, "BSTAR": 0.00037344508, "MEAN_MOTION_DOT": 3.99e-06, "MEAN_MOTION_DDOT": 0}, "tle": {"line1": "1 29851U 99025EV  25361.07230863  .00000399  00000+0  37345-3 0  9991", "line2": "2 29851  99.5825  42.2672 0142566 189.6451 237.1924 13.83611580955650"}}, "geometry": {"type": "Point", "coordinates": [-147.7947321368506, -47.26887968423745]}}, {"type": "Feature", "properties": {"norad_id": 29852, "name": "FENGYUN 1C DEB", "group": "fengyun-1c-debris", "lat": -50.13587119708171, "lon": -179.5433442084125, "alt_km": 926.5969342533199, "timestamp": "2025-12-27T12:55:14.777128+00:00", "meta": {"OBJECT_NAME": "FENGYUN 1C DEB", "OBJECT_ID": "1999-025EW", "EPOCH": "2025-12-27T00:09:06.411744", "MEAN_MOTION": 14.07150477, "ECCENTRICITY": 0.013505, "INCLINATION": 99.371, "RA_OF_ASC_NODE": 11.3106, "ARG_OF_PERICENTER": 110.6561, "MEAN_ANOMALY": 305.301, "EPHEMERIS_TYPE": 0, "CLASSIFICATION_TYPE": "U", "NORAD_CAT_ID": 29852, "ELEMENT_SET_NO": 999, "REV_AT_EPOCH": 96185, "BSTAR": 0.0017093, "MEAN_MOTION_DOT": 3.064e-05, "MEAN_MOTION_DDOT": 0}, "tle": {"line1": "1 29852U 99025EW  25361.00632421  .00003064  00000+0  17093-2 0  9990", "line2": "2 29852  99.3710  11.3106 0135050 110.6561 305.3010 14.07150477961850"}}, "geometry": {"type": "Point", "coordinates": [-179.5433442084125, -50.13587119708171]}}]}